{
  "type": "FeatureCollection",
  "features": [
    {
      "type": "Feature",
      "properties": {
        "norad_id": 66488,
        "name": "STARLINK-35515",
        "group": "last-30-days",
        "lat": 30.050253390974024,
        "lon": -155.84105849474895,
        "alt_km": 379.8785727671775,
        "timestamp": "2025-12-05T19:30:24.350248+00:00",
        "meta_object_name": "STARLINK-35515",
        "meta_object_id": "2025-263D",
        "meta_epoch": "2025-12-05T06:00:02.000160",
        "meta_mean_motion": 15.63882445,
        "meta_eccentricity": 0.00014366,
        "meta_inclination": 42.9993,
        "meta_ra_of_asc_node": 169.1329,
        "meta_arg_of_pericenter": 275.1507,
        "meta_mean_anomaly": 202.5961,
        "meta_ephemeris_type": 0,
        "meta_classification_type": "U",
        "meta_norad_cat_id": 66488,
        "meta_element_set_no": 999,
        "meta_rev_at_epoch": 443,
        "meta_bstar": -0.024353112,
        "meta_mean_motion_dot": -0.02060216,
        "meta_mean_motion_ddot": 0,
        "tle_line1": "1 66488U 25263D   25339.25002315 -.02060216  00000+0 -24353-1 0  9996",
        "tle_line2": "2 66488  42.9993 169.1329 0001436 275.1507 202.5961 15.63882445  4434"
      },
      "geometry": {
        "type": "Point",
        "coordinates": [
          -155.84105849474895,
          30.050253390974024
        ]
      }
    },
    {
      "type": "Feature",
      "properties": {
        "norad_id": 66489,
        "name": "STARLINK-35696",
        "group": "last-30-days",
        "lat": 31.061683592052095,
        "lon": -153.95288663079984,
        "alt_km": 379.7816154320226,
        "timestamp": "2025-12-05T19:30:24.350260+00:00",
        "meta_object_name": "STARLINK-35696",
        "meta_object_id": "2025-263E",
        "meta_epoch": "2025-12-05T06:00:02.000160",
        "meta_mean_motion": 15.63880022,
        "meta_eccentricity": 0.00014765,
        "meta_inclination": 42.999,
        "meta_ra_of_asc_node": 169.1282,
        "meta_arg_of_pericenter": 274.3673,
        "meta_mean_anomaly": 205.298,
        "meta_ephemeris_type": 0,
        "meta_classification_type": "U",
        "meta_norad_cat_id": 66489,
        "meta_element_set_no": 999,
        "meta_rev_at_epoch": 443,
        "meta_bstar": -0.024328195,
        "meta_mean_motion_dot": -0.02058234,
        "meta_mean_motion_ddot": 0,
        "tle_line1": "1 66489U 25263E   25339.25002315 -.02058234  00000+0 -24328-1 0  9996",
        "tle_line2": "2 66489  42.9990 169.1282 0001476 274.3673 205.2980 15.63880022  4439"
      },
      "geometry": {
        "type": "Point",
        "coordinates": [
          -153.95288663079984,
          31.061683592052095
        ]
      }
    },
    {
      "type": "Feature",
      "properties": {
        "norad_id": 66490,
        "name": "STARLINK-35693",
        "group": "last-30-days",
        "lat": 32.04465621717023,
        "lon": -152.02637756105548,
        "alt_km": 379.69412464444304,
        "timestamp": "2025-12-05T19:30:24.350270+00:00",
        "meta_object_name": "STARLINK-35693",
        "meta_object_id": "2025-263F",
        "meta_epoch": "2025-12-05T06:00:02.000160",
        "meta_mean_motion": 15.63882531,
        "meta_eccentricity": 0.00014564,
        "meta_inclination": 42.9994,
        "meta_ra_of_asc_node": 169.1234,
        "meta_arg_of_pericenter": 272.4534,
        "meta_mean_anomaly": 209.1288,
        "meta_ephemeris_type": 0,
        "meta_classification_type": "U",
        "meta_norad_cat_id": 66490,
        "meta_element_set_no": 999,
        "meta_rev_at_epoch": 443,
        "meta_bstar": -0.024383375,
        "meta_mean_motion_dot": -0.02062472,
        "meta_mean_motion_ddot": 0,
        "tle_line1": "1 66490U 25263F   25339.25002315 -.02062472  00000+0 -24383-1 0  9998",
        "tle_line2": "2 66490  42.9994 169.1234 0001456 272.4534 209.1288 15.63882531  4436"
      },
      "geometry": {
        "type": "Point",
        "coordinates": [
          -152.02637756105548,
          32.04465621717023
        ]
      }
    },
    {
      "type": "Feature",
      "properties": {
        "norad_id": 66491,
        "name": "STARLINK-35663",
        "group": "last-30-days",
        "lat": 33.92039442919091,
        "lon": -148.04303551643426,
        "alt_km": 379.4315228956839,
        "timestamp": "2025-12-05T19:30:24.350282+00:00",
        "meta_object_name": "STARLINK-35663",
        "meta_object_id": "2025-263G",
        "meta_epoch": "2025-12-05T06:00:02.000160",
        "meta_mean_motion": 15.63880408,
        "meta_eccentricity": 0.00014242,
        "meta_inclination": 42.9988,
        "meta_ra_of_asc_node": 169.1136,
        "meta_arg_of_pericenter": 271.6372,
        "meta_mean_anomaly": 213.777,
        "meta_ephemeris_type": 0,
        "meta_classification_type": "U",
        "meta_norad_cat_id": 66491,
        "meta_element_set_no": 999,
        "meta_rev_at_epoch": 443,
        "meta_bstar": -0.024308704,
        "meta_mean_motion_dot": -0.0205678,
        "meta_mean_motion_ddot": 0,
        "tle_line1": "1 66491U 25263G   25339.25002315 -.02056780  00000+0 -24309-1 0  9992",
        "tle_line2": "2 66491  42.9988 169.1136 0001424 271.6372 213.7770 15.63880408  4435"
      },
      "geometry": {
        "type": "Point",
        "coordinates": [
          -148.04303551643426,
          33.92039442919091
        ]
      }
    },
    {
      "type": "Feature",
      "properties": {
        "norad_id": 66492,
        "name": "STARLINK-35673",
        "group": "last-30-days",
        "lat": 34.80875327029551,
        "lon": -145.9880612825864,
        "alt_km": 379.3533861805181,
        "timestamp": "2025-12-05T19:30:24.350292+00:00",
        "meta_object_name": "STARLINK-35673",
        "meta_object_id": "2025-263H",
        "meta_epoch": "2025-12-05T06:00:02.000160",
        "meta_mean_motion": 15.63880799,
        "meta_eccentricity": 0.00014874,
        "meta_inclination": 42.999,
        "meta_ra_of_asc_node": 169.1085,
        "meta_arg_of_pericenter": 272.0418,
        "meta_mean_anomaly": 215.2915,
        "meta_ephemeris_type": 0,
        "meta_classification_type": "U",
        "meta_norad_cat_id": 66492,
        "meta_element_set_no": 999,
        "meta_rev_at_epoch": 443,
        "meta_bstar": -0.024345465,
        "meta_mean_motion_dot": -0.02059575,
        "meta_mean_motion_ddot": 0,
        "tle_line1": "1 66492U 25263H   25339.25002315 -.02059575  00000+0 -24345-1 0  9998",
        "tle_line2": "2 66492  42.9990 169.1085 0001487 272.0418 215.2915 15.63880799  4438"
      },
      "geometry": {
        "type": "Point",
        "coordinates": [
          -145.9880612825864,
          34.80875327029551
        ]
      }
    },
    {
      "type": "Feature",
      "properties": {
        "norad_id": 66493,
        "name": "STARLINK-35597",
        "group": "last-30-days",
        "lat": 35.66144171404846,
        "lon": -143.88912141596913,
        "alt_km": 379.2348864499627,
        "timestamp": "2025-12-05T19:30:24.350303+00:00",
        "meta_object_name": "STARLINK-35597",
        "meta_object_id": "2025-263J",
        "meta_epoch": "2025-12-05T06:00:02.000160",
        "meta_mean_motion": 15.6387597,
        "meta_eccentricity": 0.00014505,
        "meta_inclination": 42.9991,
        "meta_ra_of_asc_node": 169.1037,
        "meta_arg_of_pericenter": 271.0423,
        "meta_mean_anomaly": 218.2114,
        "meta_ephemeris_type": 0,
        "meta_classification_type": "U",
        "meta_norad_cat_id": 66493,
        "meta_element_set_no": 999,
        "meta_rev_at_epoch": 443,
        "meta_bstar": -0.024287216,
        "meta_mean_motion_dot": -0.02054895,
        "meta_mean_motion_ddot": 0,
        "tle_line1": "1 66493U 25263J   25339.25002315 -.02054895  00000+0 -24287-1 0  9994",
        "tle_line2": "2 66493  42.9991 169.1037 0001450 271.0423 218.2114 15.63875970  4431"
      },
      "geometry": {
        "type": "Point",
        "coordinates": [
          -143.88912141596913,
          35.66144171404846
        ]
      }
    },
    {
      "type": "Feature",
      "properties": {
        "norad_id": 66494,
        "name": "STARLINK-35689",
        "group": "last-30-days",
        "lat": 32.99891502161125,
        "lon": -150.0541971633288,
        "alt_km": 379.56012266339985,
        "timestamp": "2025-12-05T19:30:24.350313+00:00",
        "meta_object_name": "STARLINK-35689",
        "meta_object_id": "2025-263K",
        "meta_epoch": "2025-12-05T06:00:02.000160",
        "meta_mean_motion": 15.63874941,
        "meta_eccentricity": 0.00014539,
        "meta_inclination": 42.9989,
        "meta_ra_of_asc_node": 169.1188,
        "meta_arg_of_pericenter": 271.5902,
        "meta_mean_anomaly": 211.9105,
        "meta_ephemeris_type": 0,
        "meta_classification_type": "U",
        "meta_norad_cat_id": 66494,
        "meta_element_set_no": 999,
        "meta_rev_at_epoch": 443,
        "meta_bstar": -0.024235186,
        "meta_mean_motion_dot": -0.02050979,
        "meta_mean_motion_ddot": 0,
        "tle_line1": "1 66494U 25263K   25339.25002315 -.02050979  00000+0 -24235-1 0  9997",
        "tle_line2": "2 66494  42.9989 169.1188 0001453 271.5902 211.9105 15.63874941  4433"
      },
      "geometry": {
        "type": "Point",
        "coordinates": [
          -150.0541971633288,
          32.99891502161125
        ]
      }
    }
  ]
}